start=new Date('2021-09-14T00:00:00.000Z').valueOf();
sats=[{"ARG_OF_PERICENTER":"94.9993","FILE":"3115005","MEAN_MOTION_DDOT":"0.0000000000000","COUNTRY_CODE":"US","RA_OF_ASC_NODE":"99.7615","ELEMENT_SET_NO":"999","NORAD_CAT_ID":"47139","CENTER_NAME":"EARTH","OBJECT_ID":"2020-088T","CLASSIFICATION_TYPE":"U","PERIOD":"95.592","BSTAR":"0.00012322000000","LAUNCH_DATE":"2020-11-25","INCLINATION":"53.0548","SITE":"AFETR","TLE_LINE1":"1 47139U 20088T   21256.71680764  .00001554  00000-0  12322-3 0  9995","EPHEMERIS_TYPE":"0","MEAN_ANOMALY":"265.1239","REF_FRAME":"TEME","SEMIMAJOR_AXIS":"6925.350","MEAN_MOTION_DOT":"0.00001554","MEAN_MOTION":"15.06399377","APOAPSIS":"548.686","TLE_LINE2":"2 47139  53.0548  99.7615 0002124  94.9993 265.1239 15.06399377 44882","ECCENTRICITY":"0.00021240","TIME_SYSTEM":"UTC","OBJECT_NAME":"STARLINK-1852","REV_AT_EPOCH":"4488","OBJECT_TYPE":"PAYLOAD","PERIAPSIS":"545.745","GP_ID":"184663979","MEAN_ELEMENT_THEORY":"SGP4","DECAY_DATE":null,"RCS_SIZE":"LARGE","EPOCH":"2021-09-13T17:12:12.180096"},{"ARG_OF_PERICENTER":"56.5714","FILE":"3115005","ELEMENT_SET_NO":"999","COUNTRY_CODE":"US","RA_OF_ASC_NODE":"75.8928","MEAN_MOTION_DDOT":"0.0000000000000","CENTER_NAME":"EARTH","NORAD_CAT_ID":"47140","OBJECT_ID":"2020-088U","BSTAR":"0.00021727000000","LAUNCH_DATE":"2020-11-25","PERIOD":"91.634","CLASSIFICATION_TYPE":"U","TLE_LINE1":"1 47140U 20088U   21256.92536004  .00027824  00000-0  21727-3 0  9994","SITE":"AFETR","INCLINATION":"53.0527","SEMIMAJOR_AXIS":"6732.835","REF_FRAME":"TEME","MEAN_ANOMALY":"303.5437","EPHEMERIS_TYPE":"0","MEAN_MOTION_DOT":"0.00027824","MEAN_MOTION":"15.71468921","APOAPSIS":"355.641","ECCENTRICITY":"0.00013980","TLE_LINE2":"2 47140  53.0527  75.8928 0001398  56.5714 303.5437 15.71468921 45242","REV_AT_EPOCH":"4524","OBJECT_NAME":"STARLINK-1853","TIME_SYSTEM":"UTC","GP_ID":"184662744","PERIAPSIS":"353.759","OBJECT_TYPE":"PAYLOAD","MEAN_ELEMENT_THEORY":"SGP4","RCS_SIZE":"LARGE","EPOCH":"2021-09-13T22:12:31.107456","DECAY_DATE":null},{"ECCENTRICITY":"0.00015520","TLE_LINE2":"2 47141  53.0545  83.7535 0001552 108.9571 251.1586 15.06397249 45133","MEAN_MOTION":"15.06397249","APOAPSIS":"548.297","MEAN_ELEMENT_THEORY":"SGP4","DECAY_DATE":null,"RCS_SIZE":"LARGE","EPOCH":"2021-09-13T22:15:26.898624","REV_AT_EPOCH":"4513","TIME_SYSTEM":"UTC","OBJECT_NAME":"STARLINK-1854","GP_ID":"184662994","OBJECT_TYPE":"PAYLOAD","PERIAPSIS":"546.147","CENTER_NAME":"EARTH","NORAD_CAT_ID":"47141","OBJECT_ID":"2020-088V","FILE":"3115005","ARG_OF_PERICENTER":"108.9571","RA_OF_ASC_NODE":"83.7535","COUNTRY_CODE":"US","ELEMENT_SET_NO":"999","MEAN_MOTION_DDOT":"0.0000000000000","EPHEMERIS_TYPE":"0","MEAN_ANOMALY":"251.1586","REF_FRAME":"TEME","SEMIMAJOR_AXIS":"6925.357","MEAN_MOTION_DOT":"0.00001314","BSTAR":"0.00010710000000","LAUNCH_DATE":"2020-11-25","CLASSIFICATION_TYPE":"U","PERIOD":"95.592","SITE":"AFETR","TLE_LINE1":"1 47141U 20088V   21256.92739466  .00001314  00000-0  10710-3 0  9998","INCLINATION":"53.0545"},{"MEAN_MOTION_DDOT":"0.0000000000000","COUNTRY_CODE":"US","RA_OF_ASC_NODE":"83.8904","ELEMENT_SET_NO":"999","FILE":"3115005","ARG_OF_PERICENTER":"83.0017","OBJECT_ID":"2020-088X","NORAD_CAT_ID":"47143","CENTER_NAME":"EARTH","INCLINATION":"53.0543","SITE":"AFETR","TLE_LINE1":"1 47143U 20088X   21256.90896896 -.00000661  00000-0 -25458-4 0  9991","CLASSIFICATION_TYPE":"U","PERIOD":"95.593","LAUNCH_DATE":"2020-11-25","BSTAR":"-0.00002545800000","MEAN_MOTION_DOT":"-0.00000661","EPHEMERIS_TYPE":"0","MEAN_ANOMALY":"277.1166","REF_FRAME":"TEME","SEMIMAJOR_AXIS":"6925.370","APOAPSIS":"548.417","MEAN_MOTION":"15.06392974","TLE_LINE2":"2 47143  53.0543  83.8904 0001707  83.0017 277.1166 15.06392974 45125","ECCENTRICITY":"0.00017070","OBJECT_TYPE":"PAYLOAD","PERIAPSIS":"546.053","GP_ID":"184663746","TIME_SYSTEM":"UTC","OBJECT_NAME":"STARLINK-1856","REV_AT_EPOCH":"4512","DECAY_DATE":null,"RCS_SIZE":"LARGE","EPOCH":"2021-09-13T21:48:54.918144","MEAN_ELEMENT_THEORY":"SGP4"},{"MEAN_ANOMALY":"266.3280","EPHEMERIS_TYPE":"0","REF_FRAME":"TEME","SEMIMAJOR_AXIS":"6925.366","MEAN_MOTION_DOT":"0.00001129","BSTAR":"0.00009471600000","LAUNCH_DATE":"2020-11-25","CLASSIFICATION_TYPE":"U","PERIOD":"95.593","SITE":"AFETR","TLE_LINE1":"1 47144U 20088Y   21256.69609844  .00001129  00000-0  94716-4 0  9994","INCLINATION":"53.0556","CENTER_NAME":"EARTH","NORAD_CAT_ID":"47144","OBJECT_ID":"2020-088Y","ARG_OF_PERICENTER":"93.7913","FILE":"3115005","COUNTRY_CODE":"US","RA_OF_ASC_NODE":"74.8503","ELEMENT_SET_NO":"999","MEAN_MOTION_DDOT":"0.0000000000000","MEAN_ELEMENT_THEORY":"SGP4","DECAY_DATE":null,"EPOCH":"2021-09-13T16:42:22.905216","RCS_SIZE":"LARGE","REV_AT_EPOCH":"4523","TIME_SYSTEM":"UTC","OBJECT_NAME":"STARLINK-1857","GP_ID":"184664480","OBJECT_TYPE":"PAYLOAD","PERIAPSIS":"545.994","ECCENTRICITY":"0.00017870","TLE_LINE2":"2 47144  53.0556  74.8503 0001787  93.7913 266.3280 15.06394182 45238","MEAN_MOTION":"15.06394182","APOAPSIS":"548.469"},{"ARG_OF_PERICENTER":"28.0384","FILE":"3115005","MEAN_MOTION_DDOT":"0.0000000000000","ELEMENT_SET_NO":"999","RA_OF_ASC_NODE":"73.9873","COUNTRY_CODE":"US","NORAD_CAT_ID":"47145","CENTER_NAME":"EARTH","OBJECT_ID":"2020-088Z","CLASSIFICATION_TYPE":"U","PERIOD":"95.592","BSTAR":"0.00001490600000","LAUNCH_DATE":"2020-11-25","INCLINATION":"53.0536","TLE_LINE1":"1 47145U 20088Z   21256.88777577 -.00000062  00000-0  14906-4 0  9994","SITE":"AFETR","SEMIMAJOR_AXIS":"6925.349","REF_FRAME":"TEME","MEAN_ANOMALY":"332.0985","EPHEMERIS_TYPE":"0","MEAN_MOTION_DOT":"-0.00000062","MEAN_MOTION":"15.06399869","APOAPSIS":"552.116","TLE_LINE2":"2 47145  53.0536  73.9873 0007078  28.0384 332.0985 15.06399869 45262","ECCENTRICITY":"0.00070780","OBJECT_NAME":"STARLINK-1858","TIME_SYSTEM":"UTC","REV_AT_EPOCH":"4526","PERIAPSIS":"542.312","OBJECT_TYPE":"PAYLOAD","GP_ID":"184663245","MEAN_ELEMENT_THEORY":"SGP4","RCS_SIZE":"LARGE","EPOCH":"2021-09-13T21:18:23.826528","DECAY_DATE":null},{"MEAN_MOTION":"15.06390707","APOAPSIS":"548.647","TLE_LINE2":"2 47146  53.0553 104.4572 0002028  85.4252 274.6968 15.06390707 44824","ECCENTRICITY":"0.00020280","OBJECT_NAME":"STARLINK-1859","TIME_SYSTEM":"UTC","REV_AT_EPOCH":"4482","PERIAPSIS":"545.838","OBJECT_TYPE":"PAYLOAD","GP_ID":"184663495","MEAN_ELEMENT_THEORY":"SGP4","RCS_SIZE":"LARGE","EPOCH":"2021-09-13T18:49:45.922656","DECAY_DATE":null,"ARG_OF_PERICENTER":"85.4252","FILE":"3115005","MEAN_MOTION_DDOT":"0.0000000000000","ELEMENT_SET_NO":"999","COUNTRY_CODE":"US","RA_OF_ASC_NODE":"104.4572","NORAD_CAT_ID":"47146","CENTER_NAME":"EARTH","OBJECT_ID":"2020-088AA","PERIOD":"95.593","CLASSIFICATION_TYPE":"U","LAUNCH_DATE":"2020-11-25","BSTAR":"0.00010436000000","INCLINATION":"53.0553","TLE_LINE1":"1 47146U 20088AA  21256.78455929  .00001273  00000-0  10436-3 0  9995","SITE":"AFETR","REF_FRAME":"TEME","SEMIMAJOR_AXIS":"6925.377","MEAN_ANOMALY":"274.6968","EPHEMERIS_TYPE":"0","MEAN_MOTION_DOT":"0.00001273"},{"OBJECT_ID":"2020-088AB","CENTER_NAME":"EARTH","NORAD_CAT_ID":"47147","RA_OF_ASC_NODE":"93.8666","COUNTRY_CODE":"US","ELEMENT_SET_NO":"999","MEAN_MOTION_DDOT":"0.0000000000000","ARG_OF_PERICENTER":"75.1219","FILE":"3115005","MEAN_MOTION_DOT":"-0.00000247","EPHEMERIS_TYPE":"0","MEAN_ANOMALY":"284.9995","SEMIMAJOR_AXIS":"6925.373","REF_FRAME":"TEME","SITE":"AFETR","TLE_LINE1":"1 47147U 20088AB  21256.91910786 -.00000247  00000-0  23333-5 0  9991","INCLINATION":"53.0567","LAUNCH_DATE":"2020-11-25","BSTAR":"0.00000233330000","PERIOD":"95.593","CLASSIFICATION_TYPE":"U","ECCENTRICITY":"0.00020290","TLE_LINE2":"2 47147  53.0567  93.8666 0002029  75.1219 284.9995 15.06391954 44992","APOAPSIS":"548.643","MEAN_MOTION":"15.06391954","DECAY_DATE":null,"EPOCH":"2021-09-13T22:03:30.919104","RCS_SIZE":"LARGE","MEAN_ELEMENT_THEORY":"SGP4","GP_ID":"184664247","OBJECT_TYPE":"PAYLOAD","PERIAPSIS":"545.833","REV_AT_EPOCH":"4499","TIME_SYSTEM":"UTC","OBJECT_NAME":"STARLINK-1860"},{"APOAPSIS":"548.463","MEAN_MOTION":"15.06395144","TLE_LINE2":"2 47148  53.0561  84.8511 0001783  88.2923 271.8270 15.06395144 45097","ECCENTRICITY":"0.00017830","PERIAPSIS":"545.994","OBJECT_TYPE":"PAYLOAD","GP_ID":"184663980","OBJECT_NAME":"STARLINK-1861","TIME_SYSTEM":"UTC","REV_AT_EPOCH":"4509","RCS_SIZE":"LARGE","EPOCH":"2021-09-13T16:41:04.202592","DECAY_DATE":null,"MEAN_ELEMENT_THEORY":"SGP4","MEAN_MOTION_DDOT":"0.0000000000000","ELEMENT_SET_NO":"999","COUNTRY_CODE":"US","RA_OF_ASC_NODE":"84.8511","ARG_OF_PERICENTER":"88.2923","FILE":"3115005","OBJECT_ID":"2020-088AC","NORAD_CAT_ID":"47148","CENTER_NAME":"EARTH","INCLINATION":"53.0561","TLE_LINE1":"1 47148U 20088AC  21256.69518753 -.00000925  00000-0 -43180-4 0  9990","SITE":"AFETR","PERIOD":"95.592","CLASSIFICATION_TYPE":"U","BSTAR":"-0.00004318000000","LAUNCH_DATE":"2020-11-25","MEAN_MOTION_DOT":"-0.00000925","SEMIMAJOR_AXIS":"6925.363","REF_FRAME":"TEME","MEAN_ANOMALY":"271.8270","EPHEMERIS_TYPE":"0"},{"NORAD_CAT_ID":"47149","CENTER_NAME":"EARTH","OBJECT_ID":"2020-088AD","ARG_OF_PERICENTER":"87.2710","FILE":"3115005","MEAN_MOTION_DDOT":"0.0000000000000","ELEMENT_SET_NO":"999","RA_OF_ASC_NODE":"94.7401","COUNTRY_CODE":"US","SEMIMAJOR_AXIS":"6925.347","REF_FRAME":"TEME","EPHEMERIS_TYPE":"0","MEAN_ANOMALY":"272.8503","MEAN_MOTION_DOT":"0.00000136","CLASSIFICATION_TYPE":"U","PERIOD":"95.592","LAUNCH_DATE":"2020-11-25","BSTAR":"0.00002805200000","INCLINATION":"53.0559","TLE_LINE1":"1 47149U 20088AD  21256.72374587  .00000136  00000-0  28052-4 0  9993","SITE":"AFETR","TLE_LINE2":"2 47149  53.0559  94.7401 0001953  87.2710 272.8503 15.06400424 45699","ECCENTRICITY":"0.00019530","MEAN_MOTION":"15.06400424","APOAPSIS":"548.565","MEAN_ELEMENT_THEORY":"SGP4","RCS_SIZE":"LARGE","EPOCH":"2021-09-13T17:22:11.643168","DECAY_DATE":null,"OBJECT_NAME":"STARLINK-1862","TIME_SYSTEM":"UTC","REV_AT_EPOCH":"4569","PERIAPSIS":"545.860","OBJECT_TYPE":"PAYLOAD","GP_ID":"184662745"}];
